[{"OBJECT_NAME":"STARLINK-1559","OBJECT_ID":"2020-055BC","EPOCH":"2026-03-09T05:36:23.522976","MEAN_MOTION":15.29461733,"ECCENTRICITY":0.0004229,"INCLINATION":53.0254,"RA_OF_ASC_NODE":76.0659,"ARG_OF_PERICENTER":33.971,"MEAN_ANOMALY":326.1559,"EPHEMERIS_TYPE":0,"CLASSIFICATION_TYPE":"U","NORAD_CAT_ID":46077,"ELEMENT_SET_NO":999,"REV_AT_EPOCH":30951,"BSTAR":0.0014778793,"MEAN_MOTION_DOT":0.00042685,"MEAN_MOTION_DDOT":0},{"OBJECT_NAME":"STARLINK-32079","OBJECT_ID":"2024-136H","EPOCH":"2026-03-09T10:21:28.830816","MEAN_MOTION":15.30194556,"ECCENTRICITY":0.00011689,"INCLINATION":53.1607,"RA_OF_ASC_NODE":76.9622,"ARG_OF_PERICENTER":76.0991,"MEAN_ANOMALY":284.014,"EPHEMERIS_TYPE":0,"CLASSIFICATION_TYPE":"U","NORAD_CAT_ID":60336,"ELEMENT_SET_NO":999,"REV_AT_EPOCH":8962,"BSTAR":3.3340342e-5,"MEAN_MOTION_DOT":6.28e-6,"MEAN_MOTION_DDOT":0}]
